{
  "type": "FeatureCollection",
  "features": [
    {
      "type": "Feature",
      "properties": {
        "norad_id": 30059,
        "name": "FENGYUN 1C DEB",
        "group": "fengyun-1c-debris",
        "lat": 59.92500902646373,
        "lon": -41.273597525609325,
        "alt_km": 1101.2827644412482,
        "timestamp": "2025-12-03T22:42:32.908973+00:00",
        "meta_object_name": "FENGYUN 1C DEB",
        "meta_object_id": "1999-025PL",
        "meta_epoch": "2025-12-02T23:28:58.048896",
        "meta_mean_motion": 13.45484229,
        "meta_eccentricity": 0.03269568,
        "meta_inclination": 98.822,
        "meta_ra_of_asc_node": 333.4291,
        "meta_arg_of_pericenter": 327.4879,
        "meta_mean_anomaly": 84.8119,
        "meta_ephemeris_type": 0,
        "meta_classification_type": "U",
        "meta_norad_cat_id": 30059,
        "meta_element_set_no": 999,
        "meta_rev_at_epoch": 92666,
        "meta_bstar": 0.00052581145,
        "meta_mean_motion_dot": 3.92e-06,
        "meta_mean_motion_ddot": 0,
        "tle_line1": "1 30059U 99025PL  25336.97844964  .00000392  00000+0  52581-3 0  9999",
        "tle_line2": "2 30059  98.8220 333.4291 0326956 327.4879  84.8119 13.45484229926666"
      },
      "geometry": {
        "type": "Point",
        "coordinates": [
          -41.273597525609325,
          59.92500902646373
        ]
      }
    },
    {
      "type": "Feature",
      "properties": {
        "norad_id": 30060,
        "name": "FENGYUN 1C DEB",
        "group": "fengyun-1c-debris",
        "lat": -10.18002843873082,
        "lon": -153.0307225479462,
        "alt_km": 1152.3154050078265,
        "timestamp": "2025-12-03T22:42:32.908983+00:00",
        "meta_object_name": "FENGYUN 1C DEB",
        "meta_object_id": "1999-025PM",
        "meta_epoch": "2025-12-03T03:42:06.757632",
        "meta_mean_motion": 13.43709165,
        "meta_eccentricity": 0.03438016,
        "meta_inclination": 99.3147,
        "meta_ra_of_asc_node": 204.5464,
        "meta_arg_of_pericenter": 95.5467,
        "meta_mean_anomaly": 29.0314,
        "meta_ephemeris_type": 0,
        "meta_classification_type": "U",
        "meta_norad_cat_id": 30060,
        "meta_element_set_no": 999,
        "meta_rev_at_epoch": 92114,
        "meta_bstar": 0.002363286,
        "meta_mean_motion_dot": 1.902e-05,
        "meta_mean_motion_ddot": 0,
        "tle_line1": "1 30060U 99025PM  25337.15424488  .00001902  00000+0  23633-2 0  9990",
        "tle_line2": "2 30060  99.3147 204.5464 0343801  95.5467  29.0314 13.43709165921149"
      },
      "geometry": {
        "type": "Point",
        "coordinates": [
          -153.0307225479462,
          -10.18002843873082
        ]
      }
    },
    {
      "type": "Feature",
      "properties": {
        "norad_id": 30061,
        "name": "FENGYUN 1C DEB",
        "group": "fengyun-1c-debris",
        "lat": -60.90510347308559,
        "lon": 108.21338937511861,
        "alt_km": 841.6322024463652,
        "timestamp": "2025-12-03T22:42:32.908992+00:00",
        "meta_object_name": "FENGYUN 1C DEB",
        "meta_object_id": "1999-025PN",
        "meta_epoch": "2025-12-03T07:04:36.718752",
        "meta_mean_motion": 13.4637072,
        "meta_eccentricity": 0.0372315,
        "meta_inclination": 101.8757,
        "meta_ra_of_asc_node": 85.2245,
        "meta_arg_of_pericenter": 271.9231,
        "meta_mean_anomaly": 107.4875,
        "meta_ephemeris_type": 0,
        "meta_classification_type": "U",
        "meta_norad_cat_id": 30061,
        "meta_element_set_no": 999,
        "meta_rev_at_epoch": 91972,
        "meta_bstar": 0.0036908,
        "meta_mean_motion_dot": 3.319e-05,
        "meta_mean_motion_ddot": 0,
        "tle_line1": "1 30061U 99025PN  25337.29486943  .00003319  00000+0  36908-2 0  9993",
        "tle_line2": "2 30061 101.8757  85.2245 0372315 271.9231 107.4875 13.46370720919726"
      },
      "geometry": {
        "type": "Point",
        "coordinates": [
          108.21338937511861,
          -60.90510347308559
        ]
      }
    },
    {
      "type": "Feature",
      "properties": {
        "norad_id": 30062,
        "name": "FENGYUN 1C DEB",
        "group": "fengyun-1c-debris",
        "lat": 54.52662146459102,
        "lon": 179.91394977835728,
        "alt_km": 841.7169689121511,
        "timestamp": "2025-12-03T22:42:32.909001+00:00",
        "meta_object_name": "FENGYUN 1C DEB",
        "meta_object_id": "1999-025PP",
        "meta_epoch": "2025-12-03T12:36:19.796832",
        "meta_mean_motion": 14.07092058,
        "meta_eccentricity": 0.0049746,
        "meta_inclination": 98.781,
        "meta_ra_of_asc_node": 346.9777,
        "meta_arg_of_pericenter": 73.8312,
        "meta_mean_anomaly": 78.8391,
        "meta_ephemeris_type": 0,
        "meta_classification_type": "U",
        "meta_norad_cat_id": 30062,
        "meta_element_set_no": 999,
        "meta_rev_at_epoch": 96778,
        "meta_bstar": 0.00043831,
        "meta_mean_motion_dot": 6.99e-06,
        "meta_mean_motion_ddot": 0,
        "tle_line1": "1 30062U 99025PP  25337.52522913  .00000699  00000+0  43831-3 0  9990",
        "tle_line2": "2 30062  98.7810 346.9777 0049746  73.8312  78.8391 14.07092058967782"
      },
      "geometry": {
        "type": "Point",
        "coordinates": [
          179.91394977835728,
          54.52662146459102
        ]
      }
    },
    {
      "type": "Feature",
      "properties": {
        "norad_id": 30063,
        "name": "FENGYUN 1C DEB",
        "group": "fengyun-1c-debris",
        "lat": -47.503591935651244,
        "lon": 127.73050329604725,
        "alt_km": 838.5618040449681,
        "timestamp": "2025-12-03T22:42:32.909011+00:00",
        "meta_object_name": "FENGYUN 1C DEB",
        "meta_object_id": "1999-025PQ",
        "meta_epoch": "2025-12-03T10:28:54.032736",
        "meta_mean_motion": 14.15606823,
        "meta_eccentricity": 0.0032554,
        "meta_inclination": 98.5204,
        "meta_ra_of_asc_node": 316.6605,
        "meta_arg_of_pericenter": 160.517,
        "meta_mean_anomaly": 352.3299,
        "meta_ephemeris_type": 0,
        "meta_classification_type": "U",
        "meta_norad_cat_id": 30063,
        "meta_element_set_no": 999,
        "meta_rev_at_epoch": 97533,
        "meta_bstar": 0.0001194,
        "meta_mean_motion_dot": 1.94e-06,
        "meta_mean_motion_ddot": 0,
        "tle_line1": "1 30063U 99025PQ  25337.43673649  .00000194  00000+0  11940-3 0  9990",
        "tle_line2": "2 30063  98.5204 316.6605 0032554 160.5170 352.3299 14.15606823975334"
      },
      "geometry": {
        "type": "Point",
        "coordinates": [
          127.73050329604725,
          -47.503591935651244
        ]
      }
    },
    {
      "type": "Feature",
      "properties": {
        "norad_id": 30064,
        "name": "FENGYUN 1C DEB",
        "group": "fengyun-1c-debris",
        "lat": 33.85665589743825,
        "lon": -16.604459526534658,
        "alt_km": 852.1085486613756,
        "timestamp": "2025-12-03T22:42:32.909020+00:00",
        "meta_object_name": "FENGYUN 1C DEB",
        "meta_object_id": "1999-025PR",
        "meta_epoch": "2025-12-03T07:19:11.448768",
        "meta_mean_motion": 14.14259525,
        "meta_eccentricity": 0.0066359,
        "meta_inclination": 98.662,
        "meta_ra_of_asc_node": 348.6436,
        "meta_arg_of_pericenter": 138.005,
        "meta_mean_anomaly": 234.2965,
        "meta_ephemeris_type": 0,
        "meta_classification_type": "U",
        "meta_norad_cat_id": 30064,
        "meta_element_set_no": 999,
        "meta_rev_at_epoch": 97372,
        "meta_bstar": 0.00024079,
        "meta_mean_motion_dot": 4.27e-06,
        "meta_mean_motion_ddot": 0,
        "tle_line1": "1 30064U 99025PR  25337.30499362  .00000427  00000+0  24079-3 0  9991",
        "tle_line2": "2 30064  98.6620 348.6436 0066359 138.0050 234.2965 14.14259525973723"
      },
      "geometry": {
        "type": "Point",
        "coordinates": [
          -16.604459526534658,
          33.85665589743825
        ]
      }
    },
    {
      "type": "Feature",
      "properties": {
        "norad_id": 30065,
        "name": "FENGYUN 1C DEB",
        "group": "fengyun-1c-debris",
        "lat": 41.97079841052306,
        "lon": 139.30006678493186,
        "alt_km": 921.1153074181511,
        "timestamp": "2025-12-03T22:42:32.909029+00:00",
        "meta_object_name": "FENGYUN 1C DEB",
        "meta_object_id": "1999-025PS",
        "meta_epoch": "2025-12-03T04:44:53.802816",
        "meta_mean_motion": 13.86909062,
        "meta_eccentricity": 0.01319527,
        "meta_inclination": 98.683,
        "meta_ra_of_asc_node": 310.7045,
        "meta_arg_of_pericenter": 57.5114,
        "meta_mean_anomaly": 303.8719,
        "meta_ephemeris_type": 0,
        "meta_classification_type": "U",
        "meta_norad_cat_id": 30065,
        "meta_element_set_no": 999,
        "meta_rev_at_epoch": 95539,
        "meta_bstar": 0.00021637432,
        "meta_mean_motion_dot": 2.32e-06,
        "meta_mean_motion_ddot": 0,
        "tle_line1": "1 30065U 99025PS  25337.19784494  .00000232  00000+0  21637-3 0  9993",
        "tle_line2": "2 30065  98.6830 310.7045 0131952  57.5114 303.8719 13.86909062955390"
      },
      "geometry": {
        "type": "Point",
        "coordinates": [
          139.30006678493186,
          41.97079841052306
        ]
      }
    }
  ]
}